ONEWEB-0385             
1 49311U 21090AJ  21312.91667824 -.01053216  00000-0 -59254-1 0  9998
2 49311  87.2892 284.5748 0012875 148.2076 210.2265 15.16320724  5212
ONEWEB-0386             
1 49312U 21090AK  21312.91667824 -.01061502  00000-0 -67219-1 0  9996
2 49312  87.2796 284.6024 0007375 152.3335 282.5436 15.11760144  5195
ONEWEB-0387             
1 49313U 21090AL  21312.91667824 -.01052386  00000-0 -63063-1 0  9990
2 49313  87.2865 284.5944 0009823 169.4405  48.9954 15.14146177  5196
ONEWEB-0388             
1 49314U 21090AM  21312.91667824 -.01136703  00000-0 -88717-1 0  9990
2 49314  87.4373 284.7759 0007138 176.8662 259.2913 15.04308486  5175
